NORAD_CAT_ID,OBJECT_NAME,OBJECT_TYPE,EPOCH,MEAN_MOTION,ECCENTRICITY,INCLINATION,RA_OF_ASC_NODE,ARG_OF_PERICENTER,MEAN_ANOMALY,BSTAR,MEAN_MOTION_DOT,MEAN_MOTION_DDOT,TLE_LINE0,TLE_LINE1,TLE_LINE2,SEMIMAJOR_AXIS,PERIOD,APOGEE,PERIGEE,DECAYED
52333.0,STARLINK-3847,PAYLOAD,2022-10-24 09:22:45,15.08844073,0.0002376999999999,53.2177,341.12,29.8756,330.2371,-1.5882e-05,-5.41e-06,0.0,0 STARLINK-3847,1 52333U 22045C   22297.39080236 -.00000541  00000-0 -15882-4 0  9992,2 52333  53.2177 341.1200 0002377  29.8756 330.2371 15.08844073 29594,6917.868,95.437,541.377,538.089,0.0
52333.0,STARLINK-3847,PAYLOAD,2022-10-24 20:30:27,15.08835317,0.000215,53.2182,339.0378,25.8735,334.2364,-0.00062746,-0.00010259,0.0,0 STARLINK-3847,1 52333U 22045C   22297.85448588 -.00010259  00000-0 -62746-3 0  9998,2 52333  53.2182 339.0378 0002150  25.8735 334.2364 15.08835317 29669,6917.895,95.438,541.247,538.2719999999998,0.0
52333.0,STARLINK-3847,PAYLOAD,2022-10-25 02:52:01,15.08821474,0.0002290999999999,53.2182,337.8482,31.5295,328.5834,-7.7408e-05,-1.519e-05,0.0,0 STARLINK-3847,1 52333U 22045C   22298.11946300 -.00001519  00000-0 -77408-4 0  9994,2 52333  53.2182 337.8482 0002291  31.5295 328.5834 15.08821474 29704,6917.937,95.439,541.387,538.217,0.0
52333.0,STARLINK-3847,PAYLOAD,2022-10-25 09:13:33,15.08826637,0.0002269,53.2181,336.6586,32.8528,327.2605,-2.7275e-05,-7.22e-06,0.0,0 STARLINK-3847,1 52333U 22045C   22298.38442092 -.00000722  00000-0 -27275-4 0  9994,2 52333  53.2181 336.6586 0002269  32.8528 327.2605 15.08826637 29745,6917.920999999999,95.438,541.356,538.217,0.0
52333.0,STARLINK-3847,PAYLOAD,2022-10-26 04:18:11,15.08835302,0.0002209,53.2185,333.0892,34.7003,325.4133,7.1776e-05,8.54e-06,0.0,0 STARLINK-3847,1 52333U 22045C   22299.17929929  .00000854  00000-0  71776-4 0  9990,2 52333  53.2185 333.0892 0002209  34.7003 325.4133 15.08835302 29861,6917.895,95.438,541.288,538.232,0.0
52333.0,STARLINK-3847,PAYLOAD,2022-10-26 12:15:07,15.08837849,0.0002426,53.2172,331.6034,35.7697,324.3457,0.00026852,3.988e-05,0.0,0 STARLINK-3847,1 52333U 22045C   22299.51050337  .00003988  00000-0  26852-3 0  9991,2 52333  53.2172 331.6034 0002426  35.7697 324.3457 15.08837849 29911,6917.887,95.438,541.43,538.0740000000002,0.0
52333.0,STARLINK-3847,PAYLOAD,2022-10-27 07:19:45,15.08841791,0.0002474,53.2167,328.0355,37.4794,322.637,0.000278,4.139e-05,0.0,0 STARLINK-3847,1 52333U 22045C   22300.30538643  .00004139  00000-0  27800-3 0  9995,2 52333  53.2167 328.0355 0002474  37.4794 322.6370 15.08841791 30032,6917.875,95.437,541.451,538.028,0.0
52333.0,STARLINK-3847,PAYLOAD,2022-10-27 18:27:27,15.08847388,0.0002511,53.2166,325.9538,37.7179,322.3988,0.00025269,3.736e-05,0.0,0 STARLINK-3847,1 52333U 22045C   22300.76906353  .00003736  00000-0  25269-3 0  9991,2 52333  53.2166 325.9538 0002511  37.7179 322.3988 15.08847388 30100,6917.858,95.437,541.46,537.986,0.0
52333.0,STARLINK-3847,PAYLOAD,2022-10-27 23:13:35,15.08856432,0.000262,53.216,325.062,36.2339,323.883,0.0002194,3.207e-05,0.0,0 STARLINK-3847,1 52333U 22045C   22300.96777762  .00003207  00000-0  21940-3 0  9998,2 52333  53.2160 325.0620 0002620  36.2339 323.8830 15.08856432 30135,6917.83,95.437,541.508,537.883,0.0
52333.0,STARLINK-3847,PAYLOAD,2022-10-28 07:10:31,15.08845098,0.0002355,53.2168,323.574,38.7111,321.4049,8.031399999999999e-05,9.9e-06,0.0,0 STARLINK-3847,1 52333U 22045C   22301.29897954  .00000990  00000-0  80314-4 0  9998,2 52333  53.2168 323.5740 0002355  38.7111 321.4049 15.08845098 30186,6917.865,95.437,541.359,538.101,0.0
52333.0,STARLINK-3847,PAYLOAD,2022-10-28 08:45:54,15.08845325,0.0002452,53.2168,323.2778,36.783,323.333,6.731699999999999e-05,7.83e-06,0.0,0 STARLINK-3847,1 52333U 22045C   22301.36521940  .00000783  00000-0  67317-4 0  9993,2 52333  53.2168 323.2778 0002452  36.7830 323.3330 15.08845325 30196,6917.864000000001,95.437,541.425,538.033,0.0
52333.0,STARLINK-3847,PAYLOAD,2022-10-29 07:01:19,15.08839399,0.0002474,53.2173,319.1147,37.3624,322.754,4.467e-05,4.23e-06,0.0,0 STARLINK-3847,1 52333U 22045C   22302.29258330  .00000423  00000-0  44670-4 0  9994,2 52333  53.2173 319.1147 0002474  37.3624 322.7540 15.08839399 30334,6917.882,95.438,541.4590000000002,538.036,0.0
52333.0,STARLINK-3847,PAYLOAD,2022-10-29 08:36:42,15.08837496,0.000245,53.2174,318.8172,37.3401,322.7761,2.5752e-05,1.21e-06,0.0,0 STARLINK-3847,1 52333U 22045C   22302.35882412  .00000121  00000-0  25752-4 0  9990,2 52333  53.2174 318.8172 0002450  37.3401 322.7761 15.08837496 30348,6917.888000000001,95.438,541.448,538.058,0.0
52333.0,STARLINK-3847,PAYLOAD,2022-10-29 19:44:23,15.08845631,0.0002331,53.2175,316.7349,37.0891,323.0262,0.00011309,1.512e-05,0.0,0 STARLINK-3847,1 52333U 22045C   22302.82249521  .00001512  00000-0  11309-3 0  9997,2 52333  53.2175 316.7349 0002331  37.0891 323.0262 15.08845631 30418,6917.863,95.437,541.341,538.116,0.0
52333.0,STARLINK-3847,PAYLOAD,2022-10-30 06:52:05,15.08844689,0.0002381999999999,53.2169,314.6533,36.3701,323.7453,9.6716e-05,1.251e-05,0.0,0 STARLINK-3847,1 52333U 22045C   22303.28617426  .00001251  00000-0  96716-4 0  9997,2 52333  53.2169 314.6533 0002382  36.3701 323.7453 15.08844689 30489,6917.866,95.437,541.379,538.0830000000002,0.0
52333.0,STARLINK-3847,PAYLOAD,2022-10-30 17:59:45,15.08882569,0.0002346999999999,53.2167,312.5718,32.1693,327.9442,0.00057025,8.809999999999999e-05,0.0,0 STARLINK-3847,1 52333U 22045C   22303.74982815  .00008810  00000-0  57025-3 0  9992,2 52333  53.2167 312.5718 0002347  32.1693 327.9442 15.08882569 30555,6917.75,95.435,541.239,537.992,0.0
52333.0,STARLINK-3847,PAYLOAD,2022-10-31 09:53:39,15.08826967,0.0002306,53.2173,309.5989,33.2542,326.8595,-0.00010667,-1.985e-05,0.0,0 STARLINK-3847,1 52333U 22045C   22304.41226171 -.00001985  00000-0 -10667-3 0  9992,2 52333  53.2173 309.5989 0002306  33.2542 326.8595 15.08826967 30656,6917.92,95.438,541.38,538.19,0.0
52333.0,STARLINK-3847,PAYLOAD,2022-11-01 03:22:52,15.08842915,0.0002394,53.2178,306.3273,30.2389,329.8741,1.6882000000000002e-05,-2e-07,0.0,0 STARLINK-3847,1 52333U 22045C   22305.14089080 -.00000020  00000-0  16882-4 0  9993,2 52333  53.2178 306.3273 0002394  30.2389 329.8741 15.08842915 30764,6917.871,95.437,541.393,538.08,0.0
52333.0,STARLINK-3847,PAYLOAD,2022-11-01 06:33:39,15.08846641,0.0002372,53.2176,305.7322,32.2204,327.8932,4.483e-05,4.25e-06,0.0,0 STARLINK-3847,1 52333U 22045C   22305.27336883  .00000425  00000-0  44830-4 0  9995,2 52333  53.2176 305.7322 0002372  32.2204 327.8932 15.08846641 30786,6917.86,95.437,541.366,538.0840000000002,0.0
52333.0,STARLINK-3847,PAYLOAD,2022-11-01 19:16:44,15.08840172,0.0002331999999999,53.2171,303.353,31.3393,328.7738,-0.00023577,-4.039e-05,0.0,0 STARLINK-3847,1 52333U 22045C   22305.80328973 -.00004039  00000-0 -23577-3 0  9996,2 52333  53.2171 303.3530 0002332  31.3393 328.7738 15.08840172 30867,6917.88,95.438,541.3580000000002,538.132,0.0
52333.0,STARLINK-3847,PAYLOAD,2022-11-02 03:13:40,15.08836589,0.000244,53.2168,301.8675,31.0748,329.0388,0.00016941,2.409e-05,0.0,0 STARLINK-3847,1 52333U 22045C   22306.13449492  .00002409  00000-0  16941-3 0  9997,2 52333  53.2168 301.8675 0002440  31.0748 329.0388 15.08836589 30915,6917.891,95.438,541.444,538.068,0.0
52333.0,STARLINK-3847,PAYLOAD,2022-11-02 06:24:26,15.08833865,0.0002354,53.2173,301.2724,30.757,329.356,0.00013244,1.82e-05,0.0,0 STARLINK-3847,1 52333U 22045C   22306.26697653  .00001820  00000-0  13244-3 0  9994,2 52333  53.2173 301.2724 0002354  30.7570 329.3560 15.08833865 30934,6917.899,95.438,541.393,538.136,0.0
52333.0,STARLINK-3847,PAYLOAD,2022-11-03 04:39:51,15.08836924,0.0002449,53.217,297.1089,32.8811,327.2333,0.00014188,1.97e-05,0.0,0 STARLINK-3847,1 52333U 22045C   22307.19434416  .00001970  00000-0  14188-3 0  9997,2 52333  53.2170 297.1089 0002449  32.8811 327.2333 15.08836924 31074,6917.89,95.438,541.4490000000002,538.061,0.0
52333.0,STARLINK-3847,PAYLOAD,2022-11-03 09:26:00,15.08842225,0.000249,53.2169,296.218,30.875,329.2388,1.5601e-05,-4e-07,0.0,0 STARLINK-3847,1 52333U 22045C   22307.39306197 -.00000040  00000-0  15601-4 0  9993,2 52333  53.2169 296.2180 0002490  30.8750 329.2388 15.08842225 31107,6917.874,95.437,541.461,538.016,0.0
52333.0,STARLINK-3847,PAYLOAD,2022-11-04 09:16:47,15.08851765,0.000231,53.2167,291.7571,33.7487,326.3652,0.00040833,6.218e-05,0.0,0 STARLINK-3847,1 52333U 22045C   22308.38666065  .00006218  00000-0  40833-3 0  9992,2 52333  53.2167 291.7571 0002310  33.7487 326.3652 15.08851765 31256,6917.844,95.437,541.307,538.111,0.0
52333.0,STARLINK-3847,PAYLOAD,2022-11-04 15:38:20,15.08845019,0.0002468,53.2163,290.5667,30.9534,329.1603,0.00023044,3.382e-05,0.0,0 STARLINK-3847,1 52333U 22045C   22308.65162304  .00003382  00000-0  23044-3 0  9993,2 52333  53.2163 290.5667 0002468  30.9534 329.1603 15.08845019 31297,6917.865,95.437,541.437,538.023,0.0
52333.0,STARLINK-3847,PAYLOAD,2022-11-05 02:46:02,15.08833051,0.0002444,53.217,288.4857,31.3039,328.8098,1.4313e-05,-6.1e-07,0.0,0 STARLINK-3847,1 52333U 22045C   22309.11531128 -.00000061  00000-0  14313-4 0  9991,2 52333  53.2170 288.4857 0002444  31.3039 328.8098 15.08833051 31366,6917.901999999999,95.438,541.457,538.076,0.0
52333.0,STARLINK-3847,PAYLOAD,2022-11-05 07:32:12,15.08827172,0.0002372,53.2168,287.5932,31.2854,328.8279,-3.8818e-05,-9.06e-06,0.0,0 STARLINK-3847,1 52333U 22045C   22309.31403673 -.00000906  00000-0 -38818-4 0  9991,2 52333  53.2168 287.5932 0002372  31.2854 328.8279 15.08827172 31392,6917.92,95.438,541.4259999999998,538.144,0.0
52333.0,STARLINK-3847,PAYLOAD,2022-11-05 18:39:55,15.08817514,0.0002357,53.2176,285.5117,35.0408,325.0739,-0.00013734,-2.472e-05,0.0,0 STARLINK-3847,1 52333U 22045C   22309.77773097 -.00002472  00000-0 -13734-3 0  9990,2 52333  53.2176 285.5117 0002357  35.0408 325.0739 15.08817514 31461,6917.949000000001,95.439,541.445,538.184,0.0
